EUTELSAT QUANTUM        
1 49056U 21069B   25292.91568839  .00000000  00000+0  00000+0 0  9999
2 49056   0.0129  95.6659 0002621 135.5600 174.7390  1.00271962 15510
EUTELSAT KONNECT VHTS   
1 53765U 22110A   25292.92405956  .00000018  00000+0  00000+0 0  9999
2 53765   0.0592  94.1124 0002582  96.6083 173.2947  1.00270779  4419
EUTELSAT HOTBIRD 13F    
1 54048U 22134A   25292.84074142  .00000087  00000+0  00000+0 0  9996
2 54048   0.0548 282.3137 0002138  78.2858 343.6250  1.00272323 10967
EUTELSAT HOTBIRD 13G    
1 54225U 22146A   25292.91206843  .00000088  00000+0  00000+0 0  9990
2 54225   0.0474 236.2302 0001957 301.8516 191.8927  1.00271243  5056
EUTELSAT 10B            
1 54259U 22157A   25292.91146176  .00000069  00000+0  00000+0 0  9990
2 54259   0.0615  91.5636 0001607  43.8624 231.3109  1.00271422 10616
EUTELSAT 36D            
1 59346U 24059A   25292.91657512  .00000156  00000+0  00000+0 0  9993
2 59346   0.0176 239.5968 0000130 179.0093 335.8426  1.00271450  5734
